CORVUS BC1              
1 42847U 17042Y   18163.95872614  .00000147  00000-0  19898-4 0  9991
2 42847  97.5978  67.0339 0008532 201.5977 158.4884 14.91917630 49731
SILU-1 (SILKROAD 1)     
1 42903U 17021F   18163.77121980  .00017251  00000-0  13328-3 0  9999
2 42903  42.7799 354.9637 0013655 271.8150 196.2580 15.71483449 49234
MIRATA                  
1 43015U 17073C   18164.02686644  .00000640  00000-0  56788-4 0  9995
2 43015  97.7043  95.2182 0256718 285.2245  72.0716 14.78136853 30528
ASTERIA                 
1 43020U 98067NH  18164.04273273  .00010116  00000-0  13282-3 0  9995
2 43020  51.6423  35.1695 0003038 144.0529 216.0669 15.59186376 31847
DELLINGR (RBLE)         
1 43021U 98067NJ  18163.89571648  .00004948  00000-0  72643-4 0  9998
2 43021  51.6401  37.1641 0002923 137.0322 223.0898 15.57486708 31800
OSIRIS-3U               
1 43027U 98067NL  18164.06265813  .00022553  00000-0  23794-3 0  9992
2 43027  51.6385  31.5171 0004109 134.4183 225.7148 15.64131304 31777
AEROCUBE 7B             
1 43042U 17071F   18163.89893215  .00001775  00000-0  55678-4 0  9998
2 43042  51.6400  62.4072 0004435 245.9321 114.1199 15.38831558 28940
AEROCUBE 7C             
1 43043U 17071G   18163.89893855  .00001783  00000-0  55905-4 0  9991
2 43043  51.6402  62.4111 0004473 249.0439 111.0067 15.38832061 28911
CHEFSAT                 
1 43044U 17071H   18163.91030223  .00003584  00000-0  99248-4 0  9996
2 43044  51.6408  61.7552 0004347 248.5289 111.5232 15.39692930 28926
ASGARDIA 1              
1 43049U 17071N   18163.94500481  .00001777  00000-0  55474-4 0  9997
2 43049  51.6405  61.9746 0001877 271.8190  88.2579 15.38966596 28925
ISARA                   
1 43050U 17071P   18163.91185388  .00003354  00000-0  93898-4 0  9996
2 43050  51.6403  61.7631 0001717 266.8155  93.2633 15.39561353 28924
FAUNA                   
1 43052U 17071R   18163.93388062  .00002290  00000-0  68279-4 0  9997
2 43052  51.6405  61.9079 0001760 266.7306  93.3477 15.39098254 28912
CORVUS BC3              
1 43118U 18004H   18163.80350898  .00000657  00000-0  31649-4 0  9995
2 43118  97.5333 226.3849 0012284 108.0914 252.1661 15.22242005 23048
MICROMAS-2A             
1 43131U 18004W   18163.89664767  .00001438  00000-0  64537-4 0  9992
2 43131  97.5342 226.5790 0011504 110.6353 249.6118 15.22787395 23066
GOMX4-B                 
1 43196U 18015E   18164.20282212  .00000343  00000-0  17216-4 0  9998
2 43196  97.3454 293.2138 0019390 166.2082 193.9689 15.23558056 19928
GOMX4-A                 
1 43197U 18015F   18164.08487700  .00000396  00000-0  19392-4 0  9999
2 43197  97.3456 293.1029 0019680 167.6659 278.4172 15.23654985 19919
UBAKUSAT                
1 43466U 98067NP  18163.95078787  .00007540  00000-0  11503-3 0  9992
2 43466  51.6431  39.5639 0001680 108.0659 350.9565 15.55541189  5040
1KUNS-PF                
1 43467U 98067NQ  18163.95045148  .00005651  00000-0  88181-4 0  9996
2 43467  51.6428  39.5646 0004050 118.6913 340.2669 15.55480311  5045
BATSU-CS1 (IRAZU)       
1 43468U 98067NR  18163.86715794  .00008901  00000-0  13386-3 0  9993
2 43468  51.6477  39.9588 0001653 118.6752 241.4354 15.55676362105010
